IRIDIUM 33 DEB          
1 34508U 97051GZ  17345.85099332  .00000382  00000-0  15382-3 0  9996
2 34508  86.3803 238.0033 0077681 243.5544 115.7661 14.23874603456094
